{{Infobox Planet  
| name=828 Lindemannia (1916 ZX)
| image=
| caption=
| discovery=yes 
| physical_characteristics=yes 
| bgcolour=#FFFFC0
| discoverer=[[约翰·帕利扎|约翰·帕利扎]]
| discovery_site=[[维也纳|维也纳]]
| discovered=1916年8月29日
| mp_name=828
| alt_names=
| mp_category=[[小行星带|主带小行星]]
| epoch=2456400.5 (2013-Apr-18.0) TDB
| semimajor= 3.189061649323847AU
| perihelion=3.085559597044162AU
| aphelion=3.292563701603532AU
| eccentricity=.03245533127326951
| period=2080.141120114303天<br>5.70年
| inclination=1.132040912757077°
| asc_node=1.872890081763224°	
| arg_peri=289.5691996154739°
| mean_anomaly=49.47054507355613°
 | dimensions=
 | mean_radius=26.695千米
 | rotation=
 | spectral_type=XFU
 | abs_magnitude=10.33
 | albedo=0.0457
}}
'''小行星828'''（828 Lindemannia (1916 ZX)），是[[约翰·帕利扎|约翰·帕利扎]]于1916年8月29日在[[维也纳|维也纳]]发现的[[小行星带|主带小行星]]<ref>{{JPL Small Body|name=828}}</ref>。以一位英国的业余天文学家Adolph Friedrich Lindemann的名字命名。

== 参考资料==
{{Reflist}}

{{Minor Planet Number|[[小行星827|小行星827]]|[[小行星829|小行星829]]}}

[[Category:小行星带天体|Category:小行星带天体]]
[[Category:1916年发现的小行星|Category:1916年发现的小行星]]
[[Category:以人名命名的小行星|Category:以人名命名的小行星]]
[[Category:约翰·帕利扎发现的天体|Category:约翰·帕利扎发现的天体]]

{{beltasteroid-stub}}